PROBA-1                 
1 26958U 01049B   26198.73486477  .00000755  00000+0  52549-4 0  9991
2 26958  97.9600 208.3365 0055531  21.3820 338.9709 15.07620360348223
CUTE-1 (CO-55)          
1 27844U 03031E   26198.45437377  .00000130  00000+0  74903-4 0  9998
2 27844  98.6744 206.6332 0010863  96.8604 263.3811 14.24352364195988
CUBESAT XI-IV (CO-57)   
1 27848U 03031J   26198.45804685  .00000106  00000+0  65800-4 0  9991
2 27848  98.6776 206.3252 0010618 113.4163 246.8133 14.23635260195687
APRIZESAT 4             
1 35684U 09041D   26198.46612409  .00000340  00000+0  47360-4 0  9998
2 35684  98.1403 274.3888 0042383 221.9877 137.8085 14.83915547915856
APRIZESAT 3             
1 35686U 09041F   26198.39240433  .00000514  00000+0  49783-4 0  9990
2 35686  98.2104 353.0707 0060735 328.5965  31.1633 14.96314161920899
PROBA-2                 
1 36037U 09059B   26198.50162219  .00000053  00000+0  22895-4 0  9991
2 36037  98.2461  21.4357 0013173 181.5534 178.5625 14.54874149885939
APRIZESAT 5             
1 37792U 11044E   26198.74597052  .00000344  00000+0  50880-4 0  9998
2 37792  98.2449 132.6541 0050682 264.2484  95.2948 14.81129659803317
APRIZESAT 6             
1 37793U 11044F   26198.57717800  .00000328  00000+0  53815-4 0  9998
2 37793  98.2335 109.6946 0042864 350.6351 130.9243 14.76958656801630
PROBA-V                 
1 39159U 13021A   26198.41179997  .00000004  00000+0  19662-4 0  9998
2 39159  98.3607 175.5295 0005171  54.7902 305.3761 14.23603581685419
APRIZESAT 7             
1 39416U 13066A   26198.61009281  .00000661  00000+0  70616-4 0  9998
2 39416  97.7723 151.3962 0037292 109.6247 250.9002 14.91622016685761
APRIZESAT 8             
1 39425U 13066K   26198.34135455  .00000356  00000+0  44567-4 0  9998
2 39425  97.8230 145.3916 0045681 184.7762 175.3025 14.87698086684156
BUGSAT-1 (TITA)         
1 40014U 14033E   26198.73333858  .00003420  00000+0  18071-3 0  9994
2 40014  98.0434 293.0756 0028912  77.4709 282.9754 15.15898471660465
SAUDISAT 4              
1 40016U 14033G   26198.34882686  .00000220  00000+0  35798-4 0  9992
2 40016  97.7621 343.4471 0044070 336.9897  22.9340 14.79576785650539
APRIZESAT 9             
1 40018U 14033J   26198.34334027  .00000296  00000+0  50835-4 0  9997
2 40018  97.9097 330.8108 0067487 103.1795 257.6955 14.74254170648009
APRIZESAT 10            
1 40019U 14033K   26198.60279539  .00000280  00000+0  51810-4 0  9990
2 40019  97.9685 324.8896 0078927 175.6715 184.5192 14.70912482646728
TECHDEMOSAT-1 (TDS-1)   
1 40076U 14037H   26198.43803912  .00003484  00000+0  19784-3 0  9998
2 40076  98.3829 193.6612 0007131 151.6707 208.4911 15.13697375652808
TECHNOSAT               
1 42829U 17042E   26198.36696889  .00001444  00000+0  10531-3 0  9995
2 42829  97.4321 354.8846 0017222 356.4574   3.6528 15.05118204491240
FLYING LAPTOP           
1 42831U 17042G   26198.71276133  .00002081  00000+0  16558-3 0  9996
2 42831  97.4819 353.0993 0019601  24.4623 335.7527 15.01323225491031
HAWK-A                  
1 43765U 18099H   26198.07570926  .00003796  00000+0  15258-3 0  9992
2 43765  97.3893 249.9255 0034934 177.4083 182.7343 15.24979113417658
HAWK-B                  
1 43794U 18099AN  26198.59303626  .00002916  00000+0  12492-3 0  9992
2 43794  97.3942 249.7872 0031628 193.5822 166.4567 15.23130659417666
HAWK-C                  
1 43799U 18099AT  26198.70410950  .00004494  00000+0  16085-3 0  9994
2 43799  97.3869 251.6101 0040561 174.9667 185.1989 15.28513795418570
SALSAT                  
1 46495U 20068K   26197.96833821  .00003909  00000+0  13663-3 0  9991
2 46495  97.8858 202.8562 0009384 186.4299 173.6821 15.30186484319914
HAWK-2C                 
1 47502U 21006CT  26198.66379244  .00003412  00000+0  10268-3 0  9993
2 47502  97.2260 242.3701 0008685  93.8853 266.3384 15.35006871304171
HAWK-2A                 
1 47505U 21006CW  26198.66598168  .00003992  00000+0  11967-3 0  9994
2 47505  97.2301 243.0676 0008216  97.1620 263.0558 15.35029058304177
HAWK-2B                 
1 47508U 21006CZ  26198.52893606  .00003810  00000+0  11384-3 0  9999
2 47508  97.2173 241.2174 0008769  95.9169 264.3074 15.35155089304156
HAWK-3B                 
1 48931U 21059BE  26198.07364354  .00028474  00000+0  21904-3 0  9993
2 48931  97.6630  37.6634 0004664 191.2793 168.8366 15.71981880282546
HAWK-3C                 
1 48948U 21059BX  26198.07332558  .00027820  00000+0  21401-3 0  9998
2 48948  97.6747  43.3996 0004992 191.7605 168.3541 15.71985132282543
HAWK-3A                 
1 48957U 21059CG  26198.07321316  .00027525  00000+0  21178-3 0  9991
2 48957  97.6690  40.5803 0004843 193.9667 166.1462 15.71983553282546
HAWK-5C                 
1 52754U 22057Y   26198.34914872  .00010534  00000+0  17449-3 0  9993
2 52754  97.6624 359.9892 0002589 336.8816  23.2319 15.52373230231022
HAWK-5B                 
1 52756U 22057AA  26198.41342899  .00010426  00000+0  17271-3 0  9990
2 52756  97.6636 358.4117 0003281 321.9348  38.1672 15.52371017231035
HAWK-5A                 
1 52757U 22057AB  26197.96201104  .00010385  00000+0  17210-3 0  9990
2 52757  97.6630 358.7605 0003196 330.0631  30.0438 15.52363268230967
